{
  "links" : {
    "next" : "https://api.nasa.gov/neo/rest/v1/feed?start_date=2012-08-09&end_date=2012-08-09&detailed=true&api_key=t0TVs3DtDT2H8Oy2Zy8m2eVrNsAVKAexjcZXUckd",
    "prev" : "https://api.nasa.gov/neo/rest/v1/feed?start_date=2012-08-07&end_date=2012-08-07&detailed=true&api_key=t0TVs3DtDT2H8Oy2Zy8m2eVrNsAVKAexjcZXUckd",
    "self" : "https://api.nasa.gov/neo/rest/v1/feed?start_date=2012-08-08&end_date=2012-08-08&detailed=true&api_key=t0TVs3DtDT2H8Oy2Zy8m2eVrNsAVKAexjcZXUckd"
  },
  "element_count" : 10,
  "near_earth_objects" : {
    "2012-08-08" : [ {
      "links" : {
        "self" : "https://api.nasa.gov/neo/rest/v1/neo/3743123?api_key=t0TVs3DtDT2H8Oy2Zy8m2eVrNsAVKAexjcZXUckd"
      },
      "neo_reference_id" : "3743123",
      "name" : "(2016 CA138)",
      "nasa_jpl_url" : "http://ssd.jpl.nasa.gov/sbdb.cgi?sstr=3743123",
      "absolute_magnitude_h" : 23.4,
      "estimated_diameter" : {
        "kilometers" : {
          "estimated_diameter_min" : 0.0555334912,
          "estimated_diameter_max" : 0.1241766613
        },
        "meters" : {
          "estimated_diameter_min" : 55.5334911581,
          "estimated_diameter_max" : 124.1766612574
        },
        "miles" : {
          "estimated_diameter_min" : 0.0345069009,
          "estimated_diameter_max" : 0.0771597762
        },
        "feet" : {
          "estimated_diameter_min" : 182.1964991311,
          "estimated_diameter_max" : 407.4037573197
        }
      },
      "is_potentially_hazardous_asteroid" : false,
      "close_approach_data" : [ {
        "close_approach_date" : "2012-08-08",
        "epoch_date_close_approach" : 1344409200000,
        "relative_velocity" : {
          "kilometers_per_second" : "15.6848006094",
          "kilometers_per_hour" : "56465.2821937471",
          "miles_per_hour" : "35085.3304831092"
        },
        "miss_distance" : {
          "astronomical" : "0.2416525304",
          "lunar" : "94.0028381348",
          "kilometers" : "36150704",
          "miles" : "22463006"
        },
        "orbiting_body" : "Earth"
      } ],
      "orbital_data" : {
        "orbit_id" : "15",
        "orbit_determination_date" : "2017-09-03 06:18:06",
        "orbit_uncertainty" : "0",
        "minimum_orbit_intersection" : ".051852",
        "jupiter_tisserand_invariant" : "5.976",
        "epoch_osculation" : "2458000.5",
        "eccentricity" : ".04785421434227258",
        "semi_major_axis" : "1.000635310238575",
        "inclination" : "27.72270532641191",
        "ascending_node_longitude" : "328.9859009608685",
        "orbital_period" : "365.6050307755489",
        "perihelion_distance" : ".9527506936239722",
        "perihelion_argument" : "327.9732393908697",
        "aphelion_distance" : "1.048519926853179",
        "perihelion_time" : "2457947.679860924133",
        "mean_anomaly" : "52.0103621850488",
        "mean_motion" : ".9846691639782443",
        "equinox" : "J2000"
      }
    } ]
  }
}